[{"OBJECT_NAME":"STARLINK-3796","OBJECT_ID":"2022-045AT","EPOCH":"2026-03-09T13:27:54.929088","MEAN_MOTION":15.08830421,"ECCENTRICITY":0.0001294,"INCLINATION":53.2176,"RA_OF_ASC_NODE":189.6983,"ARG_OF_PERICENTER":97.297,"MEAN_ANOMALY":262.8169,"EPHEMERIS_TYPE":0,"CLASSIFICATION_TYPE":"U","NORAD_CAT_ID":52372,"ELEMENT_SET_NO":999,"REV_AT_EPOCH":21589,"BSTAR":-6.5789e-6,"MEAN_MOTION_DOT":-3.93e-6,"MEAN_MOTION_DDOT":0},{"OBJECT_NAME":"OBJECT Z","OBJECT_ID":"2017-042Z","EPOCH":"2026-03-09T21:17:53.130336","MEAN_MOTION":15.06776019,"ECCENTRICITY":0.00062541,"INCLINATION":97.3821,"RA_OF_ASC_NODE":235.9429,"ARG_OF_PERICENTER":50.1524,"MEAN_ANOMALY":310.0253,"EPHEMERIS_TYPE":0,"CLASSIFICATION_TYPE":"U","NORAD_CAT_ID":42848,"ELEMENT_SET_NO":999,"REV_AT_EPOCH":47228,"BSTAR":0.00039314781,"MEAN_MOTION_DOT":5.795e-5,"MEAN_MOTION_DDOT":0}]
